CCSDS_OMM_VERS = 2.0
CREATION_DATE  = 
ORIGINATOR     = 

OBJECT_NAME    = ATLAS CENTAUR 2
OBJECT_ID      = 1963-047A
CENTER_NAME    = EARTH
REF_FRAME      = TEME
TIME_SYSTEM    = UTC
MEAN_ELEMENT_THEORY = SGP/SGP4

EPOCH          = 2026-02-04T05:57:27.631872
MEAN_MOTION    = 14.11972960
ECCENTRICITY   = .05481194
INCLINATION    = 30.3549
RA_OF_ASC_NODE = 22.5147
ARG_OF_PERICENTER = 145.6072
MEAN_ANOMALY   = 218.1290

EPHEMERIS_TYPE = 0
CLASSIFICATION_TYPE = U
NORAD_CAT_ID   = 694
ELEMENT_SET_NO = 999
REV_AT_EPOCH   = 12689
BSTAR          = .1633467E-3
MEAN_MOTION_DOT = .1434E-4
MEAN_MOTION_DDOT = 0

CCSDS_OMM_VERS = 2.0
CREATION_DATE  = 
ORIGINATOR     = 

OBJECT_NAME    = THOR AGENA D R/B
OBJECT_ID      = 1964-002A
CENTER_NAME    = EARTH
REF_FRAME      = TEME
TIME_SYSTEM    = UTC
MEAN_ELEMENT_THEORY = SGP/SGP4

EPOCH          = 2026-02-04T07:26:11.604192
MEAN_MOTION    = 14.33998561
ECCENTRICITY   = .0032843
INCLINATION    = 99.1227
RA_OF_ASC_NODE = 46.8300
ARG_OF_PERICENTER = 357.4747
MEAN_ANOMALY   = 2.6265

EPHEMERIS_TYPE = 0
CLASSIFICATION_TYPE = U
NORAD_CAT_ID   = 733
ELEMENT_SET_NO = 999
REV_AT_EPOCH   = 23351
BSTAR          = .11698815E-3
MEAN_MOTION_DOT = .28E-5
MEAN_MOTION_DDOT = 0

CCSDS_OMM_VERS = 2.0
CREATION_DATE  = 
ORIGINATOR     = 

OBJECT_NAME    = SL-3 R/B
OBJECT_ID      = 1964-053B
CENTER_NAME    = EARTH
REF_FRAME      = TEME
TIME_SYSTEM    = UTC
MEAN_ELEMENT_THEORY = SGP/SGP4

EPOCH          = 2026-02-04T07:05:42.805248
MEAN_MOTION    = 14.61331961
ECCENTRICITY   = .00780516
INCLINATION    = 65.0764
RA_OF_ASC_NODE = 69.1387
ARG_OF_PERICENTER = 302.8347
MEAN_ANOMALY   = 56.5254

EPHEMERIS_TYPE = 0
CLASSIFICATION_TYPE = U
NORAD_CAT_ID   = 877
ELEMENT_SET_NO = 999
REV_AT_EPOCH   = 26191
BSTAR          = .99440281E-4
MEAN_MOTION_DOT = .388E-5
MEAN_MOTION_DDOT = 0

CCSDS_OMM_VERS = 2.0
CREATION_DATE  = 
ORIGINATOR     = 

OBJECT_NAME    = SL-8 R/B
OBJECT_ID      = 1967-045B
CENTER_NAME    = EARTH
REF_FRAME      = TEME
TIME_SYSTEM    = UTC
MEAN_ELEMENT_THEORY = SGP/SGP4

EPOCH          = 2026-02-04T05:15:40.095648
MEAN_MOTION    = 14.45589906
ECCENTRICITY   = .00629427
INCLINATION    = 74.0098
RA_OF_ASC_NODE = 50.5953
ARG_OF_PERICENTER = 65.4428
MEAN_ANOMALY   = 295.3272

EPHEMERIS_TYPE = 0
CLASSIFICATION_TYPE = U
NORAD_CAT_ID   = 2802
ELEMENT_SET_NO = 999
REV_AT_EPOCH   = 8418
BSTAR          = .89243724E-4
MEAN_MOTION_DOT = .295E-5
MEAN_MOTION_DDOT = 0

CCSDS_OMM_VERS = 2.0
CREATION_DATE  = 
ORIGINATOR     = 

OBJECT_NAME    = SL-8 R/B
OBJECT_ID      = 1968-040B
CENTER_NAME    = EARTH
REF_FRAME      = TEME
TIME_SYSTEM    = UTC
MEAN_ELEMENT_THEORY = SGP/SGP4

EPOCH          = 2026-02-04T07:09:34.502400
MEAN_MOTION    = 15.02993358
ECCENTRICITY   = .00255518
INCLINATION    = 74.0316
RA_OF_ASC_NODE = 21.9051
ARG_OF_PERICENTER = 215.2792
MEAN_ANOMALY   = 144.6706

EPHEMERIS_TYPE = 0
CLASSIFICATION_TYPE = U
NORAD_CAT_ID   = 3230
ELEMENT_SET_NO = 999
REV_AT_EPOCH   = 8499
BSTAR          = .34446701E-3
MEAN_MOTION_DOT = .4627E-4
MEAN_MOTION_DDOT = 0

CCSDS_OMM_VERS = 2.0
CREATION_DATE  = 
ORIGINATOR     = 

OBJECT_NAME    = OAO 2
OBJECT_ID      = 1968-110A
CENTER_NAME    = EARTH
REF_FRAME      = TEME
TIME_SYSTEM    = UTC
MEAN_ELEMENT_THEORY = SGP/SGP4

EPOCH          = 2026-02-04T04:27:39.244896
MEAN_MOTION    = 14.47286372
ECCENTRICITY   = .00061101
INCLINATION    = 34.9934
RA_OF_ASC_NODE = 92.2778
ARG_OF_PERICENTER = 287.8612
MEAN_ANOMALY   = 72.1412

EPHEMERIS_TYPE = 0
CLASSIFICATION_TYPE = U
NORAD_CAT_ID   = 3597
ELEMENT_SET_NO = 999
REV_AT_EPOCH   = 1424
BSTAR          = .99843608E-4
MEAN_MOTION_DOT = .351E-5
MEAN_MOTION_DDOT = 0

CCSDS_OMM_VERS = 2.0
CREATION_DATE  = 
ORIGINATOR     = 

OBJECT_NAME    = ISIS 1
OBJECT_ID      = 1969-009A
CENTER_NAME    = EARTH
REF_FRAME      = TEME
TIME_SYSTEM    = UTC
MEAN_ELEMENT_THEORY = SGP/SGP4

EPOCH          = 2026-02-04T06:16:27.652224
MEAN_MOTION    = 11.30398582
ECCENTRICITY   = .17078507
INCLINATION    = 88.4551
RA_OF_ASC_NODE = 158.9510
ARG_OF_PERICENTER = 156.6102
MEAN_ANOMALY   = 212.3072

EPHEMERIS_TYPE = 0
CLASSIFICATION_TYPE = U
NORAD_CAT_ID   = 3669
ELEMENT_SET_NO = 999
REV_AT_EPOCH   = 34475
BSTAR          = .28829001E-3
MEAN_MOTION_DOT = .421E-5
MEAN_MOTION_DDOT = 0

CCSDS_OMM_VERS = 2.0
CREATION_DATE  = 
ORIGINATOR     = 

OBJECT_NAME    = SERT 2
OBJECT_ID      = 1970-009A
CENTER_NAME    = EARTH
REF_FRAME      = TEME
TIME_SYSTEM    = UTC
MEAN_ELEMENT_THEORY = SGP/SGP4

EPOCH          = 2026-02-04T06:44:25.784736
MEAN_MOTION    = 13.58726123
ECCENTRICITY   = .00039685
INCLINATION    = 99.2717
RA_OF_ASC_NODE = 340.2105
ARG_OF_PERICENTER = 248.2491
MEAN_ANOMALY   = 238.3892

EPHEMERIS_TYPE = 0
CLASSIFICATION_TYPE = U
NORAD_CAT_ID   = 4327
ELEMENT_SET_NO = 999
REV_AT_EPOCH   = 77535
BSTAR          = .9499744E-4
MEAN_MOTION_DOT = .28E-6
MEAN_MOTION_DDOT = 0

CCSDS_OMM_VERS = 2.0
CREATION_DATE  = 
ORIGINATOR     = 

OBJECT_NAME    = SL-3 R/B
OBJECT_ID      = 1971-028B
CENTER_NAME    = EARTH
REF_FRAME      = TEME
TIME_SYSTEM    = UTC
MEAN_ELEMENT_THEORY = SGP/SGP4

EPOCH          = 2026-02-04T05:33:25.117344
MEAN_MOTION    = 15.58497865
ECCENTRICITY   = .00177225
INCLINATION    = 81.2357
RA_OF_ASC_NODE = 93.2748
ARG_OF_PERICENTER = 52.0825
MEAN_ANOMALY   = 308.2025

EPHEMERIS_TYPE = 0
CLASSIFICATION_TYPE = U
NORAD_CAT_ID   = 5118
ELEMENT_SET_NO = 999
REV_AT_EPOCH   = 98345
BSTAR          = .4652452E-3
MEAN_MOTION_DOT = .35891E-3
MEAN_MOTION_DDOT = 0

CCSDS_OMM_VERS = 2.0
CREATION_DATE  = 
ORIGINATOR     = 

OBJECT_NAME    = ASTEX 1
OBJECT_ID      = 1971-089A
CENTER_NAME    = EARTH
REF_FRAME      = TEME
TIME_SYSTEM    = UTC
MEAN_ELEMENT_THEORY = SGP/SGP4

EPOCH          = 2026-02-04T07:12:54.584928
MEAN_MOTION    = 14.50728235
ECCENTRICITY   = .00151905
INCLINATION    = 92.7154
RA_OF_ASC_NODE = 140.9566
ARG_OF_PERICENTER = 189.2508
MEAN_ANOMALY   = 170.8421

EPHEMERIS_TYPE = 0
CLASSIFICATION_TYPE = U
NORAD_CAT_ID   = 5560
ELEMENT_SET_NO = 999
REV_AT_EPOCH   = 85746
BSTAR          = .18225938E-3
MEAN_MOTION_DOT = .716E-5
MEAN_MOTION_DDOT = 0

CCSDS_OMM_VERS = 2.0
CREATION_DATE  = 
ORIGINATOR     = 

OBJECT_NAME    = SL-8 R/B
OBJECT_ID      = 1971-119B
CENTER_NAME    = EARTH
REF_FRAME      = TEME
TIME_SYSTEM    = UTC
MEAN_ELEMENT_THEORY = SGP/SGP4

EPOCH          = 2026-02-03T23:15:08.702208
MEAN_MOTION    = 14.36847614
ECCENTRICITY   = .05544113
INCLINATION    = 73.8848
RA_OF_ASC_NODE = 238.7047
ARG_OF_PERICENTER = 212.2439
MEAN_ANOMALY   = 144.3684

EPHEMERIS_TYPE = 0
CLASSIFICATION_TYPE = U
NORAD_CAT_ID   = 5730
ELEMENT_SET_NO = 999
REV_AT_EPOCH   = 65064
BSTAR          = .54210497E-3
MEAN_MOTION_DOT = .10435E-3
MEAN_MOTION_DDOT = 0

CCSDS_OMM_VERS = 2.0
CREATION_DATE  = 
ORIGINATOR     = 

OBJECT_NAME    = OAO 3 (COPERNICUS)
OBJECT_ID      = 1972-065A
CENTER_NAME    = EARTH
REF_FRAME      = TEME
TIME_SYSTEM    = UTC
MEAN_ELEMENT_THEORY = SGP/SGP4

EPOCH          = 2026-02-03T16:43:52.165920
MEAN_MOTION    = 14.59966289
ECCENTRICITY   = .00071526
INCLINATION    = 35.0051
RA_OF_ASC_NODE = 130.9780
ARG_OF_PERICENTER = 245.5799
MEAN_ANOMALY   = 270.5537

EPHEMERIS_TYPE = 0
CLASSIFICATION_TYPE = U
NORAD_CAT_ID   = 6153
ELEMENT_SET_NO = 999
REV_AT_EPOCH   = 84122
BSTAR          = .10638965E-3
MEAN_MOTION_DOT = .497E-5
MEAN_MOTION_DDOT = 0

