ATLAS CENTAUR 2         
1 00694U 63047A   26035.24823648  .00001434  00000+0  16335-3 0  9994
2 00694  30.3549  22.5147 0548119 145.6072 218.1290 14.11972960126898
THOR AGENA D R/B        
1 00733U 64002A   26035.30985653  .00000280  00000+0  11699-3 0  9998
2 00733  99.1227  46.8300 0032843 357.4747   2.6265 14.33998561233517
SL-3 R/B                
1 00877U 64053B   26035.29563432  .00000388  00000+0  99440-4 0  9998
2 00877  65.0764  69.1387 0078051 302.8347  56.5254 14.61331961261915
SL-8 R/B                
1 02802U 67045B   26035.21921407  .00000295  00000+0  89244-4 0  9992
2 02802  74.0098  50.5953 0062942  65.4428 295.3272 14.45589906 84183
SL-8 R/B                
1 03230U 68040B   26035.29831600  .00004627  00000+0  34447-3 0  9994
2 03230  74.0316  21.9051 0025551 215.2792 144.6706 15.02993358 84998
OAO 2                   
1 03597U 68110A   26035.18587089  .00000351  00000+0  99844-4 0  9998
2 03597  34.9934  92.2778 0006110 287.8612  72.1412 14.47286372 14247
ISIS 1                  
1 03669U 69009A   26035.26143116  .00000421  00000+0  28829-3 0  9996
2 03669  88.4551 158.9510 1707850 156.6102 212.3072 11.30398582344755
SERT 2                  
1 04327U 70009A   26035.28085399  .00000028  00000+0  94997-4 0  9993
2 04327  99.2717 340.2105 0003968 248.2491 238.3892 13.58726123775354
SL-3 R/B                
1 05118U 71028B   26035.23154071  .00035891  00000+0  46525-3 0  9992
2 05118  81.2357  93.2748 0017722  52.0825 308.2025 15.58497865983454
ASTEX 1                 
1 05560U 71089A   26035.30063177  .00000716  00000+0  18226-3 0  9999
2 05560  92.7154 140.9566 0015190 189.2508 170.8421 14.50728235857466
SL-8 R/B                
1 05730U 71119B   26034.96885072  .00010435  00000+0  54210-3 0  9991
2 05730  73.8848 238.7047 0554411 212.2439 144.3684 14.36847614650644
OAO 3 (COPERNICUS)      
1 06153U 72065A   26034.69713155  .00000497  00000+0  10639-3 0  9998
2 06153  35.0051 130.9780 0007152 245.5799 270.5537 14.59966289841220
